start=new Date('2022-09-08T00:00:00.000Z').valueOf();
sats=[{"NORAD_CAT_ID":"45778","PERIAPSIS":"546.200","MEAN_MOTION_DDOT":"0.0000000000000","SITE":"AFETR","PERIOD":"95.593","ELEMENT_SET_NO":"999","COUNTRY_CODE":"US","APOAPSIS":"548.351","LAUNCH_DATE":"2020-06-13","RCS_SIZE":"LARGE","TLE_LINE2":"2 45778  53.0548 180.5632 0001553  76.0020 284.1141 15.06379890123894","DECAY_DATE":null,"CLASSIFICATION_TYPE":"U","GP_ID":"211962603","MEAN_MOTION_DOT":"-0.00002329","OBJECT_NAME":"STARLINK-1491","RA_OF_ASC_NODE":"180.5632","SEMIMAJOR_AXIS":"6925.410","REV_AT_EPOCH":"12389","TIME_SYSTEM":"UTC","MEAN_MOTION":"15.06379890","ECCENTRICITY":"0.00015530","ARG_OF_PERICENTER":"76.0020","EPHEMERIS_TYPE":"0","FILE":"3562217","TLE_LINE1":"1 45778U 20038BA  22250.17812367 -.00002329  00000-0 -13760-3 0  9998","EPOCH":"2022-09-07T04:16:29.885088","CENTER_NAME":"EARTH","MEAN_ELEMENT_THEORY":"SGP4","MEAN_ANOMALY":"284.1141","REF_FRAME":"TEME","BSTAR":"-0.00013760000000","OBJECT_ID":"2020-038BA","INCLINATION":"53.0548","OBJECT_TYPE":"PAYLOAD"},{"OBJECT_TYPE":"PAYLOAD","OBJECT_ID":"2020-038BB","INCLINATION":"53.0545","BSTAR":"0.00117020000000","MEAN_ANOMALY":"274.9838","REF_FRAME":"TEME","CENTER_NAME":"EARTH","EPOCH":"2022-09-07T20:03:18.935712","MEAN_ELEMENT_THEORY":"SGP4","FILE":"3563022","TLE_LINE1":"1 45779U 20038BB  22250.83563583  .00017379  00000-0  11702-2 0  9997","EPHEMERIS_TYPE":"0","ARG_OF_PERICENTER":"85.1440","TIME_SYSTEM":"UTC","REV_AT_EPOCH":"12399","ECCENTRICITY":"0.00025300","MEAN_MOTION":"15.06795216","OBJECT_NAME":"STARLINK-1492","SEMIMAJOR_AXIS":"6924.138","RA_OF_ASC_NODE":"177.5976","CLASSIFICATION_TYPE":"U","MEAN_MOTION_DOT":"0.00017379","GP_ID":"212006610","LAUNCH_DATE":"2020-06-13","TLE_LINE2":"2 45779  53.0545 177.5976 0002530  85.1440 274.9838 15.06795216123997","RCS_SIZE":"LARGE","DECAY_DATE":null,"SITE":"AFETR","PERIOD":"95.567","ELEMENT_SET_NO":"999","COUNTRY_CODE":"US","APOAPSIS":"547.754","PERIAPSIS":"544.251","NORAD_CAT_ID":"45779","MEAN_MOTION_DDOT":"0.0000000000000"},{"REF_FRAME":"TEME","MEAN_ANOMALY":"288.3954","MEAN_ELEMENT_THEORY":"SGP4","EPOCH":"2022-09-07T04:27:05.771808","CENTER_NAME":"EARTH","TLE_LINE1":"1 45780U 20038BC  22250.18548347 -.00002731  00000-0 -16456-3 0  9998","FILE":"3562217","OBJECT_TYPE":"PAYLOAD","INCLINATION":"53.0523","OBJECT_ID":"2020-038BC","BSTAR":"-0.00016456000000","GP_ID":"211961603","MEAN_MOTION_DOT":"-0.00002731","CLASSIFICATION_TYPE":"U","DECAY_DATE":null,"TLE_LINE2":"2 45780  53.0523 180.5303 0001572  71.7206 288.3954 15.06388868123897","RCS_SIZE":"LARGE","LAUNCH_DATE":"2020-06-13","ELEMENT_SET_NO":"999","COUNTRY_CODE":"US","APOAPSIS":"548.336","PERIOD":"95.593","SITE":"AFETR","MEAN_MOTION_DDOT":"0.0000000000000","NORAD_CAT_ID":"45780","PERIAPSIS":"546.159","EPHEMERIS_TYPE":"0","ARG_OF_PERICENTER":"71.7206","ECCENTRICITY":"0.00015720","MEAN_MOTION":"15.06388868","TIME_SYSTEM":"UTC","REV_AT_EPOCH":"12389","SEMIMAJOR_AXIS":"6925.383","RA_OF_ASC_NODE":"180.5303","OBJECT_NAME":"STARLINK-1496"},{"PERIOD":"95.593","SITE":"AFETR","COUNTRY_CODE":"US","APOAPSIS":"548.288","ELEMENT_SET_NO":"999","NORAD_CAT_ID":"45781","PERIAPSIS":"546.222","MEAN_MOTION_DDOT":"0.0000000000000","CLASSIFICATION_TYPE":"U","MEAN_MOTION_DOT":"-0.00002510","GP_ID":"211961853","LAUNCH_DATE":"2020-06-13","DECAY_DATE":null,"TLE_LINE2":"2 45781  53.0548 180.4270 0001492  68.2123 291.9024 15.06386513123902","RCS_SIZE":"LARGE","TIME_SYSTEM":"UTC","REV_AT_EPOCH":"12390","MEAN_MOTION":"15.06386513","ECCENTRICITY":"0.00014920","OBJECT_NAME":"STARLINK-1497","RA_OF_ASC_NODE":"180.4270","SEMIMAJOR_AXIS":"6925.390","EPHEMERIS_TYPE":"0","ARG_OF_PERICENTER":"68.2123","FILE":"3562217","TLE_LINE1":"1 45781U 20038BD  22250.21129273 -.00002510  00000-0 -14970-3 0  9990","MEAN_ANOMALY":"291.9024","REF_FRAME":"TEME","EPOCH":"2022-09-07T05:04:15.691872","CENTER_NAME":"EARTH","MEAN_ELEMENT_THEORY":"SGP4","OBJECT_ID":"2020-038BD","INCLINATION":"53.0548","BSTAR":"-0.00014970000000","OBJECT_TYPE":"PAYLOAD"},{"INCLINATION":"53.0523","OBJECT_ID":"2020-038BE","BSTAR":"0.00105330000000","OBJECT_TYPE":"PAYLOAD","FILE":"3562217","TLE_LINE1":"1 45782U 20038BE  22250.18233562  .00015902  00000-0  10533-2 0  9991","MEAN_ANOMALY":"286.0066","REF_FRAME":"TEME","CENTER_NAME":"EARTH","EPOCH":"2022-09-07T04:22:33.797568","MEAN_ELEMENT_THEORY":"SGP4","REV_AT_EPOCH":"12391","TIME_SYSTEM":"UTC","MEAN_MOTION":"15.07467920","ECCENTRICITY":"0.00021250","RA_OF_ASC_NODE":"180.3357","SEMIMAJOR_AXIS":"6922.077","OBJECT_NAME":"STARLINK-1498","EPHEMERIS_TYPE":"0","ARG_OF_PERICENTER":"74.1157","COUNTRY_CODE":"US","ELEMENT_SET_NO":"999","APOAPSIS":"545.413","SITE":"AFETR","PERIOD":"95.524","MEAN_MOTION_DDOT":"0.0000000000000","PERIAPSIS":"542.472","NORAD_CAT_ID":"45782","CLASSIFICATION_TYPE":"U","GP_ID":"211963103","MEAN_MOTION_DOT":"0.00015902","LAUNCH_DATE":"2020-06-13","DECAY_DATE":null,"TLE_LINE2":"2 45782  53.0523 180.3357 0002125  74.1157 286.0066 15.07467920123913","RCS_SIZE":"LARGE"},{"GP_ID":"211963354","MEAN_MOTION_DOT":"-0.00000918","CLASSIFICATION_TYPE":"U","DECAY_DATE":null,"TLE_LINE2":"2 45783  53.0552 180.4405 0001637  64.7288 295.3871 15.06397116123913","RCS_SIZE":"LARGE","LAUNCH_DATE":"2020-06-13","APOAPSIS":"548.356","COUNTRY_CODE":"US","ELEMENT_SET_NO":"999","SITE":"AFETR","PERIOD":"95.592","MEAN_MOTION_DDOT":"0.0000000000000","NORAD_CAT_ID":"45783","PERIAPSIS":"546.089","EPHEMERIS_TYPE":"0","ARG_OF_PERICENTER":"64.7288","ECCENTRICITY":"0.00016370","MEAN_MOTION":"15.06397116","REV_AT_EPOCH":"12391","TIME_SYSTEM":"UTC","RA_OF_ASC_NODE":"180.4405","SEMIMAJOR_AXIS":"6925.357","OBJECT_NAME":"STARLINK-1505","REF_FRAME":"TEME","MEAN_ANOMALY":"295.3871","MEAN_ELEMENT_THEORY":"SGP4","CENTER_NAME":"EARTH","EPOCH":"2022-09-07T04:58:56.681472","TLE_LINE1":"1 45783U 20038BF  22250.20760048 -.00000918  00000-0 -42763-4 0  9994","FILE":"3562217","OBJECT_TYPE":"PAYLOAD","INCLINATION":"53.0552","OBJECT_ID":"2020-038BF","BSTAR":"-0.00004276300000"},{"OBJECT_TYPE":"PAYLOAD","BSTAR":"-0.00011247000000","INCLINATION":"53.0557","OBJECT_ID":"2020-038BG","CENTER_NAME":"EARTH","EPOCH":"2022-09-07T05:57:20.198880","MEAN_ELEMENT_THEORY":"SGP4","MEAN_ANOMALY":"291.8601","REF_FRAME":"TEME","FILE":"3562217","TLE_LINE1":"1 45784U 20038BG  22250.24815045 -.00001956  00000-0 -11247-3 0  9992","ARG_OF_PERICENTER":"68.2547","EPHEMERIS_TYPE":"0","SEMIMAJOR_AXIS":"6925.393","RA_OF_ASC_NODE":"180.2426","OBJECT_NAME":"STARLINK-1510","TIME_SYSTEM":"UTC","REV_AT_EPOCH":"12391","MEAN_MOTION":"15.06385449","ECCENTRICITY":"0.00014880","LAUNCH_DATE":"2020-06-13","DECAY_DATE":null,"TLE_LINE2":"2 45784  53.0557 180.2426 0001488  68.2547 291.8601 15.06385449123919","RCS_SIZE":"LARGE","CLASSIFICATION_TYPE":"U","MEAN_MOTION_DOT":"-0.00001956","GP_ID":"211962103","MEAN_MOTION_DDOT":"0.0000000000000","NORAD_CAT_ID":"45784","PERIAPSIS":"546.228","APOAPSIS":"548.289","COUNTRY_CODE":"US","ELEMENT_SET_NO":"999","SITE":"AFETR","PERIOD":"95.593"},{"OBJECT_TYPE":"PAYLOAD","BSTAR":"-0.00007789400000","OBJECT_ID":"2020-038BH","INCLINATION":"53.0562","MEAN_ELEMENT_THEORY":"SGP4","EPOCH":"2022-09-07T05:30:47.655936","CENTER_NAME":"EARTH","REF_FRAME":"TEME","MEAN_ANOMALY":"300.9987","TLE_LINE1":"1 45785U 20038BH  22250.22971824 -.00001441  00000-0 -77894-4 0  9999","FILE":"3562217","ARG_OF_PERICENTER":"59.1188","EPHEMERIS_TYPE":"0","OBJECT_NAME":"STARLINK-1512","SEMIMAJOR_AXIS":"6925.393","RA_OF_ASC_NODE":"180.3445","ECCENTRICITY":"0.00018930","MEAN_MOTION":"15.06385484","TIME_SYSTEM":"UTC","REV_AT_EPOCH":"12391","TLE_LINE2":"2 45785  53.0562 180.3445 0001893  59.1188 300.9987 15.06385484123916","DECAY_DATE":null,"RCS_SIZE":"LARGE","LAUNCH_DATE":"2020-06-13","GP_ID":"211962353","MEAN_MOTION_DOT":"-0.00001441","CLASSIFICATION_TYPE":"U","PERIAPSIS":"545.947","NORAD_CAT_ID":"45785","MEAN_MOTION_DDOT":"0.0000000000000","PERIOD":"95.593","SITE":"AFETR","COUNTRY_CODE":"US","APOAPSIS":"548.569","ELEMENT_SET_NO":"999"},{"MEAN_MOTION":"15.06395264","ECCENTRICITY":"0.00014200","TIME_SYSTEM":"UTC","REV_AT_EPOCH":"12400","OBJECT_NAME":"STARLINK-1513","RA_OF_ASC_NODE":"177.7315","SEMIMAJOR_AXIS":"6925.363","EPHEMERIS_TYPE":"0","ARG_OF_PERICENTER":"73.0297","PERIOD":"95.592","SITE":"AFETR","ELEMENT_SET_NO":"999","COUNTRY_CODE":"US","APOAPSIS":"548.211","NORAD_CAT_ID":"45786","PERIAPSIS":"546.245","MEAN_MOTION_DDOT":"0.0000000000000","GP_ID":"212007363","MEAN_MOTION_DOT":"0.00000251","CLASSIFICATION_TYPE":"U","TLE_LINE2":"2 45786  53.0526 177.7315 0001420  73.0297 287.0847 15.06395264124003","DECAY_DATE":null,"RCS_SIZE":"LARGE","LAUNCH_DATE":"2020-06-13","OBJECT_ID":"2020-038BJ","INCLINATION":"53.0526","BSTAR":"0.00003572300000","OBJECT_TYPE":"PAYLOAD","TLE_LINE1":"1 45786U 20038BJ  22250.81209149  .00000251  00000-0  35723-4 0  9990","FILE":"3563022","REF_FRAME":"TEME","MEAN_ANOMALY":"287.0847","MEAN_ELEMENT_THEORY":"SGP4","EPOCH":"2022-09-07T19:29:24.704736","CENTER_NAME":"EARTH"},{"OBJECT_TYPE":"PAYLOAD","INCLINATION":"53.0537","OBJECT_ID":"2020-038BK","BSTAR":"-0.00006999700000","REF_FRAME":"TEME","MEAN_ANOMALY":"292.8587","MEAN_ELEMENT_THEORY":"SGP4","EPOCH":"2022-09-07T05:20:10.229568","CENTER_NAME":"EARTH","TLE_LINE1":"1 45787U 20038BK  22250.22234062 -.00001324  00000-0 -69997-4 0  9992","FILE":"3562217","EPHEMERIS_TYPE":"0","ARG_OF_PERICENTER":"67.2578","MEAN_MOTION":"15.06397322","ECCENTRICITY":"0.00016630","TIME_SYSTEM":"UTC","REV_AT_EPOCH":"12391","SEMIMAJOR_AXIS":"6925.357","RA_OF_ASC_NODE":"180.3826","OBJECT_NAME":"STARLINK-1517","MEAN_MOTION_DOT":"-0.00001324","GP_ID":"211962854","CLASSIFICATION_TYPE":"U","TLE_LINE2":"2 45787  53.0537 180.3826 0001663  67.2578 292.8587 15.06397322123910","DECAY_DATE":null,"RCS_SIZE":"LARGE","LAUNCH_DATE":"2020-06-13","ELEMENT_SET_NO":"999","COUNTRY_CODE":"US","APOAPSIS":"548.373","SITE":"AFETR","PERIOD":"95.592","MEAN_MOTION_DDOT":"0.0000000000000","NORAD_CAT_ID":"45787","PERIAPSIS":"546.070"}];
